[{"OBJECT_NAME":"STARLINK-37056","OBJECT_ID":"2026-054AE","EPOCH":"2026-04-12T14:53:03.272064","MEAN_MOTION":15.80075644,"ECCENTRICITY":0.0003186,"INCLINATION":53.1572,"RA_OF_ASC_NODE":142.3832,"ARG_OF_PERICENTER":17.9895,"MEAN_ANOMALY":342.1239,"EPHEMERIS_TYPE":0,"CLASSIFICATION_TYPE":"U","NORAD_CAT_ID":68260,"ELEMENT_SET_NO":999,"REV_AT_EPOCH":414,"BSTAR":-0.00073867,"MEAN_MOTION_DOT":-0.00139056,"MEAN_MOTION_DDOT":0},{"OBJECT_NAME":"TEN-KOH 2","OBJECT_ID":"2025-241B","EPOCH":"2026-04-12T17:54:42.943968","MEAN_MOTION":15.23051686,"ECCENTRICITY":0.0004925,"INCLINATION":51.642,"RA_OF_ASC_NODE":270.9389,"ARG_OF_PERICENTER":285.7127,"MEAN_ANOMALY":74.3307,"EPHEMERIS_TYPE":0,"CLASSIFICATION_TYPE":"U","NORAD_CAT_ID":68261,"ELEMENT_SET_NO":999,"REV_AT_EPOCH":493,"BSTAR":0.00025815,"MEAN_MOTION_DOT":5.835e-5,"MEAN_MOTION_DDOT":0},{"OBJECT_NAME":"STARLINK-37162","OBJECT_ID":"2026-055A","EPOCH":"2026-04-12T12:40:36.649344","MEAN_MOTION":15.80945516,"ECCENTRICITY":7.39e-5,"INCLINATION":53.1578,"RA_OF_ASC_NODE":167.7122,"ARG_OF_PERICENTER":55.7965,"MEAN_ANOMALY":304.3128,"EPHEMERIS_TYPE":0,"CLASSIFICATION_TYPE":"U","NORAD_CAT_ID":68262,"ELEMENT_SET_NO":999,"REV_AT_EPOCH":503,"BSTAR":0.0013562,"MEAN_MOTION_DOT":0.00276662,"MEAN_MOTION_DDOT":0},{"OBJECT_NAME":"STARLINK-37156","OBJECT_ID":"2026-055B","EPOCH":"2026-04-12T09:37:27.619104","MEAN_MOTION":15.80898159,"ECCENTRICITY":0.0001276,"INCLINATION":53.1582,"RA_OF_ASC_NODE":168.341,"ARG_OF_PERICENTER":37.5002,"MEAN_ANOMALY":322.6109,"EPHEMERIS_TYPE":0,"CLASSIFICATION_TYPE":"U","NORAD_CAT_ID":68263,"ELEMENT_SET_NO":999,"REV_AT_EPOCH":501,"BSTAR":0.0014022,"MEAN_MOTION_DOT":0.00285729,"MEAN_MOTION_DDOT":0},{"OBJECT_NAME":"STARLINK-37163","OBJECT_ID":"2026-055C","EPOCH":"2026-04-12T09:35:17.664000","MEAN_MOTION":15.80918042,"ECCENTRICITY":0.0001426,"INCLINATION":53.1579,"RA_OF_ASC_NODE":168.3298,"ARG_OF_PERICENTER":134.0723,"MEAN_ANOMALY":226.0417,"EPHEMERIS_TYPE":0,"CLASSIFICATION_TYPE":"U","NORAD_CAT_ID":68264,"ELEMENT_SET_NO":999,"REV_AT_EPOCH":501,"BSTAR":0.00066006,"MEAN_MOTION_DOT":0.00131857,"MEAN_MOTION_DDOT":0},{"OBJECT_NAME":"STARLINK-37133","OBJECT_ID":"2026-055D","EPOCH":"2026-04-12T14:09:28.681056","MEAN_MOTION":15.80943608,"ECCENTRICITY":0.0001368,"INCLINATION":53.1577,"RA_OF_ASC_NODE":167.385,"ARG_OF_PERICENTER":191.9893,"MEAN_ANOMALY":168.1097,"EPHEMERIS_TYPE":0,"CLASSIFICATION_TYPE":"U","NORAD_CAT_ID":68265,"ELEMENT_SET_NO":999,"REV_AT_EPOCH":504,"BSTAR":0.001027,"MEAN_MOTION_DOT":0.00207617,"MEAN_MOTION_DDOT":0},{"OBJECT_NAME":"STARLINK-37042","OBJECT_ID":"2026-055E","EPOCH":"2026-04-12T12:36:17.541792","MEAN_MOTION":15.80957163,"ECCENTRICITY":0.0001366,"INCLINATION":53.1576,"RA_OF_ASC_NODE":167.6912,"ARG_OF_PERICENTER":51.3312,"MEAN_ANOMALY":308.7832,"EPHEMERIS_TYPE":0,"CLASSIFICATION_TYPE":"U","NORAD_CAT_ID":68266,"ELEMENT_SET_NO":999,"REV_AT_EPOCH":503,"BSTAR":0.0014766,"MEAN_MOTION_DOT":0.0030233,"MEAN_MOTION_DDOT":0},{"OBJECT_NAME":"STARLINK-37103","OBJECT_ID":"2026-055F","EPOCH":"2026-04-12T14:06:14.882400","MEAN_MOTION":15.80902989,"ECCENTRICITY":0.0001468,"INCLINATION":53.1577,"RA_OF_ASC_NODE":167.369,"ARG_OF_PERICENTER":86.5023,"MEAN_ANOMALY":273.6168,"EPHEMERIS_TYPE":0,"CLASSIFICATION_TYPE":"U","NORAD_CAT_ID":68267,"ELEMENT_SET_NO":999,"REV_AT_EPOCH":504,"BSTAR":0.00077963,"MEAN_MOTION_DOT":0.00156205,"MEAN_MOTION_DDOT":0},{"OBJECT_NAME":"STARLINK-36999","OBJECT_ID":"2026-055G","EPOCH":"2026-04-12T14:05:10.021920","MEAN_MOTION":15.8095953,"ECCENTRICITY":0.0001026,"INCLINATION":53.1577,"RA_OF_ASC_NODE":167.3645,"ARG_OF_PERICENTER":41.6548,"MEAN_ANOMALY":318.4552,"EPHEMERIS_TYPE":0,"CLASSIFICATION_TYPE":"U","NORAD_CAT_ID":68268,"ELEMENT_SET_NO":999,"REV_AT_EPOCH":504,"BSTAR":0.0014436,"MEAN_MOTION_DOT":0.00295368,"MEAN_MOTION_DDOT":0},{"OBJECT_NAME":"STARLINK-36962","OBJECT_ID":"2026-055H","EPOCH":"2026-04-12T12:33:03.252384","MEAN_MOTION":15.80915651,"ECCENTRICITY":0.0001775,"INCLINATION":53.1585,"RA_OF_ASC_NODE":167.6778,"ARG_OF_PERICENTER":45.7773,"MEAN_ANOMALY":314.3395,"EPHEMERIS_TYPE":0,"CLASSIFICATION_TYPE":"U","NORAD_CAT_ID":68269,"ELEMENT_SET_NO":999,"REV_AT_EPOCH":503,"BSTAR":0.0010299,"MEAN_MOTION_DOT":0.00207952,"MEAN_MOTION_DDOT":0},{"OBJECT_NAME":"STARLINK-37028","OBJECT_ID":"2026-055J","EPOCH":"2026-04-12T14:01:55.576128","MEAN_MOTION":15.80950619,"ECCENTRICITY":0.0001192,"INCLINATION":53.1579,"RA_OF_ASC_NODE":167.3488,"ARG_OF_PERICENTER":88.5931,"MEAN_ANOMALY":271.5228,"EPHEMERIS_TYPE":0,"CLASSIFICATION_TYPE":"U","NORAD_CAT_ID":68270,"ELEMENT_SET_NO":999,"REV_AT_EPOCH":504,"BSTAR":0.0013207,"MEAN_MOTION_DOT":0.00269218,"MEAN_MOTION_DDOT":0},{"OBJECT_NAME":"STARLINK-37029","OBJECT_ID":"2026-055K","EPOCH":"2026-04-12T14:03:00.263808","MEAN_MOTION":15.80927767,"ECCENTRICITY":0.0001096,"INCLINATION":53.1581,"RA_OF_ASC_NODE":167.353,"ARG_OF_PERICENTER":61.1231,"MEAN_ANOMALY":298.9901,"EPHEMERIS_TYPE":0,"CLASSIFICATION_TYPE":"U","NORAD_CAT_ID":68271,"ELEMENT_SET_NO":999,"REV_AT_EPOCH":504,"BSTAR":0.00095852,"MEAN_MOTION_DOT":0.00193261,"MEAN_MOTION_DDOT":0},{"OBJECT_NAME":"STARLINK-36974","OBJECT_ID":"2026-055L","EPOCH":"2026-04-12T14:00:50.815872","MEAN_MOTION":15.80906157,"ECCENTRICITY":0.0001265,"INCLINATION":53.1585,"RA_OF_ASC_NODE":167.3436,"ARG_OF_PERICENTER":67.329,"MEAN_ANOMALY":292.7866,"EPHEMERIS_TYPE":0,"CLASSIFICATION_TYPE":"U","NORAD_CAT_ID":68272,"ELEMENT_SET_NO":999,"REV_AT_EPOCH":504,"BSTAR":0.00078082,"MEAN_MOTION_DOT":0.0015647,"MEAN_MOTION_DDOT":0},{"OBJECT_NAME":"STARLINK-37019","OBJECT_ID":"2026-055M","EPOCH":"2026-04-12T12:28:43.559904","MEAN_MOTION":15.80921664,"ECCENTRICITY":0.0001012,"INCLINATION":53.1574,"RA_OF_ASC_NODE":167.6549,"ARG_OF_PERICENTER":123.1783,"MEAN_ANOMALY":236.9337,"EPHEMERIS_TYPE":0,"CLASSIFICATION_TYPE":"U","NORAD_CAT_ID":68273,"ELEMENT_SET_NO":999,"REV_AT_EPOCH":503,"BSTAR":0.00084158,"MEAN_MOTION_DOT":0.00169071,"MEAN_MOTION_DDOT":0},{"OBJECT_NAME":"STARLINK-37129","OBJECT_ID":"2026-055N","EPOCH":"2026-04-12T13:58:41.286720","MEAN_MOTION":15.80950218,"ECCENTRICITY":0.0001399,"INCLINATION":53.158,"RA_OF_ASC_NODE":167.3333,"ARG_OF_PERICENTER":104.5358,"MEAN_ANOMALY":255.582,"EPHEMERIS_TYPE":0,"CLASSIFICATION_TYPE":"U","NORAD_CAT_ID":68274,"ELEMENT_SET_NO":999,"REV_AT_EPOCH":504,"BSTAR":0.0015089,"MEAN_MOTION_DOT":0.0030911,"MEAN_MOTION_DDOT":0},{"OBJECT_NAME":"STARLINK-37123","OBJECT_ID":"2026-055P","EPOCH":"2026-04-12T13:57:36.185184","MEAN_MOTION":15.8092947,"ECCENTRICITY":0.0001247,"INCLINATION":53.1582,"RA_OF_ASC_NODE":167.3292,"ARG_OF_PERICENTER":113.5546,"MEAN_ANOMALY":246.5608,"EPHEMERIS_TYPE":0,"CLASSIFICATION_TYPE":"U","NORAD_CAT_ID":68275,"ELEMENT_SET_NO":999,"REV_AT_EPOCH":504,"BSTAR":0.0011465,"MEAN_MOTION_DOT":0.00232382,"MEAN_MOTION_DDOT":0},{"OBJECT_NAME":"STARLINK-37125","OBJECT_ID":"2026-055Q","EPOCH":"2026-04-12T13:56:31.525152","MEAN_MOTION":15.80914741,"ECCENTRICITY":0.0001275,"INCLINATION":53.1573,"RA_OF_ASC_NODE":167.3235,"ARG_OF_PERICENTER":77.5796,"MEAN_ANOMALY":282.537,"EPHEMERIS_TYPE":0,"CLASSIFICATION_TYPE":"U","NORAD_CAT_ID":68276,"ELEMENT_SET_NO":999,"REV_AT_EPOCH":504,"BSTAR":0.0011154,"MEAN_MOTION_DOT":0.00225719,"MEAN_MOTION_DDOT":0},{"OBJECT_NAME":"STARLINK-36989","OBJECT_ID":"2026-055R","EPOCH":"2026-04-12T10:51:12.849984","MEAN_MOTION":15.80892059,"ECCENTRICITY":9.55e-5,"INCLINATION":53.1579,"RA_OF_ASC_NODE":167.9426,"ARG_OF_PERICENTER":93.0615,"MEAN_ANOMALY":267.0517,"EPHEMERIS_TYPE":0,"CLASSIFICATION_TYPE":"U","NORAD_CAT_ID":68277,"ELEMENT_SET_NO":999,"REV_AT_EPOCH":502,"BSTAR":0.0011066,"MEAN_MOTION_DOT":0.00223649,"MEAN_MOTION_DDOT":0},{"OBJECT_NAME":"STARLINK-36982","OBJECT_ID":"2026-055S","EPOCH":"2026-04-12T13:54:21.475872","MEAN_MOTION":15.80961824,"ECCENTRICITY":3.55e-5,"INCLINATION":53.1577,"RA_OF_ASC_NODE":167.3138,"ARG_OF_PERICENTER":208.6187,"MEAN_ANOMALY":151.4816,"EPHEMERIS_TYPE":0,"CLASSIFICATION_TYPE":"U","NORAD_CAT_ID":68278,"ELEMENT_SET_NO":999,"REV_AT_EPOCH":504,"BSTAR":0.0012676,"MEAN_MOTION_DOT":0.00258177,"MEAN_MOTION_DDOT":0},{"OBJECT_NAME":"STARLINK-36934","OBJECT_ID":"2026-055T","EPOCH":"2026-04-12T13:55:26.668992","MEAN_MOTION":15.8093074,"ECCENTRICITY":0.0001286,"INCLINATION":53.1588,"RA_OF_ASC_NODE":167.3197,"ARG_OF_PERICENTER":105.4874,"MEAN_ANOMALY":254.629,"EPHEMERIS_TYPE":0,"CLASSIFICATION_TYPE":"U","NORAD_CAT_ID":68279,"ELEMENT_SET_NO":999,"REV_AT_EPOCH":504,"BSTAR":0.0010632,"MEAN_MOTION_DOT":0.00215029,"MEAN_MOTION_DDOT":0},{"OBJECT_NAME":"STARLINK-37070","OBJECT_ID":"2026-055U","EPOCH":"2026-04-12T13:52:12.468576","MEAN_MOTION":15.80895982,"ECCENTRICITY":0.0001078,"INCLINATION":53.1579,"RA_OF_ASC_NODE":167.3039,"ARG_OF_PERICENTER":95.4192,"MEAN_ANOMALY":264.6953,"EPHEMERIS_TYPE":0,"CLASSIFICATION_TYPE":"U","NORAD_CAT_ID":68280,"ELEMENT_SET_NO":999,"REV_AT_EPOCH":504,"BSTAR":0.0010967,"MEAN_MOTION_DOT":0.00221629,"MEAN_MOTION_DDOT":0},{"OBJECT_NAME":"STARLINK-37134","OBJECT_ID":"2026-055V","EPOCH":"2026-04-12T13:50:02.567040","MEAN_MOTION":15.80910296,"ECCENTRICITY":0.0001515,"INCLINATION":53.1576,"RA_OF_ASC_NODE":167.293,"ARG_OF_PERICENTER":86.5972,"MEAN_ANOMALY":273.5224,"EPHEMERIS_TYPE":0,"CLASSIFICATION_TYPE":"U","NORAD_CAT_ID":68281,"ELEMENT_SET_NO":999,"REV_AT_EPOCH":504,"BSTAR":0.0015566,"MEAN_MOTION_DOT":0.00318672,"MEAN_MOTION_DDOT":0},{"OBJECT_NAME":"STARLINK-37160","OBJECT_ID":"2026-055W","EPOCH":"2026-04-12T13:51:07.297056","MEAN_MOTION":15.80943706,"ECCENTRICITY":9.62e-5,"INCLINATION":53.1582,"RA_OF_ASC_NODE":167.2989,"ARG_OF_PERICENTER":99.7037,"MEAN_ANOMALY":260.4094,"EPHEMERIS_TYPE":0,"CLASSIFICATION_TYPE":"U","NORAD_CAT_ID":68282,"ELEMENT_SET_NO":999,"REV_AT_EPOCH":504,"BSTAR":0.0011058,"MEAN_MOTION_DOT":0.00224042,"MEAN_MOTION_DDOT":0}]
